{"fetched_at":"2026-07-10T07:59:01.963Z","source":"https://celestrak.org/NORAD/elements/gp.php?NAME=GLOBAL&FORMAT=JSON","constellation":"blacksky-gen2","records":[{"OBJECT_NAME":"GLOBAL-2","OBJECT_ID":"2018-099BG","EPOCH":"2026-07-09T02:15:19.535904","CLASSIFICATION_TYPE":"U","MEAN_MOTION":15.0880529,"ECCENTRICITY":0.00076785,"INCLINATION":97.3552,"RA_OF_ASC_NODE":225.6963,"ARG_OF_PERICENTER":83.6881,"MEAN_ANOMALY":276.5222,"EPHEMERIS_TYPE":0,"NORAD_CAT_ID":43812,"ELEMENT_SET_NO":999,"REV_AT_EPOCH":41521,"BSTAR":0.00012399664,"MEAN_MOTION_DOT":0.00001891,"MEAN_MOTION_DDOT":0},{"OBJECT_NAME":"GLOBAL-4","OBJECT_ID":"2019-054E","EPOCH":"2026-07-09T03:45:31.071168","CLASSIFICATION_TYPE":"U","MEAN_MOTION":15.66579665,"ECCENTRICITY":0.00042281,"INCLINATION":45.004,"RA_OF_ASC_NODE":109.4392,"ARG_OF_PERICENTER":148.3502,"MEAN_ANOMALY":211.7651,"EPHEMERIS_TYPE":0,"NORAD_CAT_ID":44499,"ELEMENT_SET_NO":999,"REV_AT_EPOCH":38380,"BSTAR":0.00046720535,"MEAN_MOTION_DOT":0.0005004,"MEAN_MOTION_DDOT":0},{"OBJECT_NAME":"GLOBAL-9","OBJECT_ID":"2021-023G","EPOCH":"2026-07-09T04:59:24.494496","CLASSIFICATION_TYPE":"U","MEAN_MOTION":15.47436738,"ECCENTRICITY":0.00027068,"INCLINATION":44.9805,"RA_OF_ASC_NODE":126.6789,"ARG_OF_PERICENTER":124.3596,"MEAN_ANOMALY":235.7551,"EPHEMERIS_TYPE":0,"NORAD_CAT_ID":47971,"ELEMENT_SET_NO":999,"REV_AT_EPOCH":29835,"BSTAR":0.00032967644,"MEAN_MOTION_DOT":0.00016954,"MEAN_MOTION_DDOT":0},{"OBJECT_NAME":"GLOBAL-14","OBJECT_ID":"2021-106A","EPOCH":"2026-07-09T14:55:46.408224","CLASSIFICATION_TYPE":"U","MEAN_MOTION":15.51631327,"ECCENTRICITY":0.0016751,"INCLINATION":42.0023,"RA_OF_ASC_NODE":157.6429,"ARG_OF_PERICENTER":186.3807,"MEAN_ANOMALY":173.6826,"EPHEMERIS_TYPE":0,"NORAD_CAT_ID":49469,"ELEMENT_SET_NO":999,"REV_AT_EPOCH":26161,"BSTAR":0.00030778,"MEAN_MOTION_DOT":0.00018589,"MEAN_MOTION_DDOT":0},{"OBJECT_NAME":"GLOBAL-12","OBJECT_ID":"2021-115BA","EPOCH":"2026-07-08T14:45:26.332704","CLASSIFICATION_TYPE":"U","MEAN_MOTION":15.55014776,"ECCENTRICITY":0.00026884,"INCLINATION":53.1955,"RA_OF_ASC_NODE":301.408,"ARG_OF_PERICENTER":67.9164,"MEAN_ANOMALY":292.2133,"EPHEMERIS_TYPE":0,"NORAD_CAT_ID":49772,"ELEMENT_SET_NO":999,"REV_AT_EPOCH":25923,"BSTAR":0.00041449195,"MEAN_MOTION_DOT":0.00027922,"MEAN_MOTION_DDOT":0},{"OBJECT_NAME":"GLOBAL-13","OBJECT_ID":"2021-115BB","EPOCH":"2026-07-09T20:50:08.363040","CLASSIFICATION_TYPE":"U","MEAN_MOTION":15.46968577,"ECCENTRICITY":0.0001243,"INCLINATION":53.1977,"RA_OF_ASC_NODE":306.6969,"ARG_OF_PERICENTER":154.577,"MEAN_ANOMALY":205.53,"EPHEMERIS_TYPE":0,"NORAD_CAT_ID":49773,"ELEMENT_SET_NO":999,"REV_AT_EPOCH":25927,"BSTAR":0.00032469,"MEAN_MOTION_DOT":0.0001624,"MEAN_MOTION_DDOT":0},{"OBJECT_NAME":"GLOBAL-17","OBJECT_ID":"2021-120A","EPOCH":"2026-07-09T15:55:45.829632","CLASSIFICATION_TYPE":"U","MEAN_MOTION":15.53510688,"ECCENTRICITY":0.0013676,"INCLINATION":41.9947,"RA_OF_ASC_NODE":275.242,"ARG_OF_PERICENTER":48.0874,"MEAN_ANOMALY":312.1135,"EPHEMERIS_TYPE":0,"NORAD_CAT_ID":49949,"ELEMENT_SET_NO":999,"REV_AT_EPOCH":25839,"BSTAR":0.00034803,"MEAN_MOTION_DOT":0.00022529,"MEAN_MOTION_DDOT":0},{"OBJECT_NAME":"GLOBAL-16","OBJECT_ID":"2021-120B","EPOCH":"2026-07-09T13:54:26.180352","CLASSIFICATION_TYPE":"U","MEAN_MOTION":15.51292974,"ECCENTRICITY":0.0011963,"INCLINATION":41.9954,"RA_OF_ASC_NODE":279.9058,"ARG_OF_PERICENTER":36.3554,"MEAN_ANOMALY":323.8101,"EPHEMERIS_TYPE":0,"NORAD_CAT_ID":49950,"ELEMENT_SET_NO":999,"REV_AT_EPOCH":25832,"BSTAR":0.00033357,"MEAN_MOTION_DOT":0.00019876,"MEAN_MOTION_DDOT":0},{"OBJECT_NAME":"GLOBAL-18","OBJECT_ID":"2022-034B","EPOCH":"2026-07-09T14:42:16.238016","CLASSIFICATION_TYPE":"U","MEAN_MOTION":15.47057031,"ECCENTRICITY":0.0004181,"INCLINATION":52.9806,"RA_OF_ASC_NODE":149.3969,"ARG_OF_PERICENTER":9.3469,"MEAN_ANOMALY":350.7614,"EPHEMERIS_TYPE":0,"NORAD_CAT_ID":52196,"ELEMENT_SET_NO":999,"REV_AT_EPOCH":24043,"BSTAR":0.00030048,"MEAN_MOTION_DOT":0.00015045,"MEAN_MOTION_DDOT":0},{"OBJECT_NAME":"GLOBAL-19","OBJECT_ID":"2023-041B","EPOCH":"2026-07-09T19:44:53.840832","CLASSIFICATION_TYPE":"U","MEAN_MOTION":15.38586696,"ECCENTRICITY":0.0008759,"INCLINATION":42.0014,"RA_OF_ASC_NODE":69.8334,"ARG_OF_PERICENTER":182.3705,"MEAN_ANOMALY":177.7094,"EPHEMERIS_TYPE":0,"NORAD_CAT_ID":55982,"ELEMENT_SET_NO":999,"REV_AT_EPOCH":18541,"BSTAR":0.0002497,"MEAN_MOTION_DOT":0.00009484,"MEAN_MOTION_DDOT":0},{"OBJECT_NAME":"GLOBAL-5","OBJECT_ID":"2023-041C","EPOCH":"2026-07-09T18:58:32.504736","CLASSIFICATION_TYPE":"U","MEAN_MOTION":15.38599869,"ECCENTRICITY":0.0007559,"INCLINATION":42.0013,"RA_OF_ASC_NODE":69.5485,"ARG_OF_PERICENTER":178.0206,"MEAN_ANOMALY":182.0664,"EPHEMERIS_TYPE":0,"NORAD_CAT_ID":55983,"ELEMENT_SET_NO":999,"REV_AT_EPOCH":18541,"BSTAR":0.00025032,"MEAN_MOTION_DOT":0.0000951,"MEAN_MOTION_DDOT":0}]}
